ONEWEB-0363             
1 49289U 21090L   24221.89892716 -.00000025  00000+0 -92611-4 0  9996
2 49289  87.9184  49.1712 0002129  85.6963 274.4413 13.20771462141730
ONEWEB-0364             
1 49290U 21090M   24221.93679029  .00000064  00000+0  12445-3 0  9990
2 49290  87.9183  49.1894 0001862  85.4792 274.6554 13.20773493142042
ONEWEB-0365             
1 49291U 21090N   24221.68783729  .00000009  00000+0 -89861-5 0  9994
2 49291  87.9103  79.7603 0001658  82.1665 277.9656 13.19723846138351
ONEWEB-0366             
1 49292U 21090P   24221.60701737 -.00000089  00000+0 -27491-3 0  9994
2 49292  87.8923  64.4966 0001773  83.4174 276.7157 13.14505636138545
ONEWEB-0367             
1 49293U 21090Q   24221.89735228  .00000019  00000+0  15177-4 0  9998
2 49293  87.9183  49.1661 0001705  81.1747 278.9579 13.20769353141724
ONEWEB-0368             
1 49294U 21090R   24221.94625960  .00000037  00000+0  58761-4 0  9992
2 49294  87.9185  49.1873 0002000  61.4499 298.6836 13.20773963141587
ONEWEB-0369             
1 49295U 21090S   24221.68309683  .00000000  00000+0 -31326-4 0  9994
2 49295  87.9110  79.7679 0001684  78.1179 282.0142 13.19723651138340
ONEWEB-0370             
1 49296U 21090T   24221.90681884  .00000117  00000+0  25615-3 0  9997
2 49296  87.9183  49.1686 0001874 100.6925 259.4420 13.20772624141764
